NOAA 11 [-]             
1 19531U 88089A   17346.14577921 -.00000031  00000-0  53995-5 0  9990
2 19531  98.5278  37.1052 0010227 244.5242 115.4875 14.15218704507920
